{
    "links": {
        "self": "http://www.neowsapp.com/rest/v1/neo/54016380?api_key=iIulBulltgU6a56xZRHN4H3l9WmuAYTsLGpBGhQ2"
    },
    "id": "54016380",
    "neo_reference_id": "54016380",
    "name": "(2020 FS5)",
    "designation": "2020 FS5",
    "nasa_jpl_url": "http://ssd.jpl.nasa.gov/sbdb.cgi?sstr=54016380",
    "absolute_magnitude_h": 25.172,
    "estimated_diameter": {
        "kilometers": {
            "estimated_diameter_min": 0.0245558503,
            "estimated_diameter_max": 0.0549085505
        },
        "meters": {
            "estimated_diameter_min": 24.5558502708,
            "estimated_diameter_max": 54.9085504507
        },
        "miles": {
            "estimated_diameter_min": 0.0152582932,
            "estimated_diameter_max": 0.0341185809
        },
        "feet": {
            "estimated_diameter_min": 80.5638158023,
            "estimated_diameter_max": 180.1461686607
        }
    },
    "is_potentially_hazardous_asteroid": false,
    "close_approach_data": [
        {
            "close_approach_date": "2020-03-22",
            "close_approach_date_full": "2020-Mar-22 13:47",
            "epoch_date_close_approach": 1584884820000,
            "relative_velocity": {
                "kilometers_per_second": "7.7136851688",
                "kilometers_per_hour": "27769.2666078054",
                "miles_per_hour": "17254.7423541666"
            },
            "miss_distance": {
                "astronomical": "0.1390261796",
                "lunar": "54.0811838644",
                "kilometers": "20798020.342397452",
                "miles": "12923290.5798187576"
            },
            "orbiting_body": "Earth"
        }
    ],
    "orbital_data": {
        "orbit_id": "3",
        "orbit_determination_date": "2020-04-03 06:34:57",
        "first_observation_date": "2020-03-24",
        "last_observation_date": "2020-04-02",
        "data_arc_in_days": 9,
        "observations_used": 20,
        "orbit_uncertainty": "8",
        "minimum_orbit_intersection": ".138799",
        "jupiter_tisserand_invariant": "4.857",
        "epoch_osculation": "2458933.5",
        "eccentricity": ".1838393014984645",
        "semi_major_axis": "1.337266028574883",
        "inclination": "14.34927116360361",
        "ascending_node_longitude": "11.80247650311356",
        "orbital_period": "564.8396106605044",
        "perihelion_distance": "1.091423975964051",
        "perihelion_argument": "132.4389200924277",
        "aphelion_distance": "1.583108081185715",
        "perihelion_time": "2458889.912759200305",
        "mean_anomaly": "27.78028734482909",
        "mean_motion": ".6373490690198376",
        "equinox": "J2000",
        "orbit_class": {
            "orbit_class_type": "AMO",
            "orbit_class_description": "Near-Earth asteroid orbits similar to that of 1221 Amor",
            "orbit_class_range": "1.017 AU < q (perihelion) < 1.3 AU"
        }
    },
    "is_sentry_object": false
}